{
  "type": "FeatureCollection",
  "features": [
    {
      "type": "Feature",
      "properties": {
        "norad_id": 36743,
        "name": "FENGYUN 1C DEB",
        "group": "fengyun-1c-debris",
        "lat": 1.8052527399598879,
        "lon": 31.719184818145816,
        "alt_km": 765.4063858140617,
        "timestamp": "2025-12-09T16:56:36.863492+00:00",
        "meta_object_name": "FENGYUN 1C DEB",
        "meta_object_id": "1999-025EBR",
        "meta_epoch": "2025-12-06T23:24:01.212192",
        "meta_mean_motion": 14.29041368,
        "meta_eccentricity": 0.00476846,
        "meta_inclination": 98.6555,
        "meta_ra_of_asc_node": 29.2835,
        "meta_arg_of_pericenter": 30.1026,
        "meta_mean_anomaly": 330.2881,
        "meta_ephemeris_type": 0,
        "meta_classification_type": "U",
        "meta_norad_cat_id": 36743,
        "meta_element_set_no": 999,
        "meta_rev_at_epoch": 60655,
        "meta_bstar": 0.0020129322,
        "meta_mean_motion_dot": 5.118e-05,
        "meta_mean_motion_ddot": 0,
        "tle_line1": "1 36743U 99025EBR 25340.97501403  .00005118  00000+0  20129-2 0  9991",
        "tle_line2": "2 36743  98.6555  29.2835 0047684  30.1026 330.2881 14.29041368606558"
      },
      "geometry": {
        "type": "Point",
        "coordinates": [
          31.719184818145816,
          1.8052527399598879
        ]
      }
    },
    {
      "type": "Feature",
      "properties": {
        "norad_id": 36986,
        "name": "FENGYUN 1C DEB",
        "group": "fengyun-1c-debris",
        "lat": 61.074590508915314,
        "lon": -113.42441084389864,
        "alt_km": 880.2836121008158,
        "timestamp": "2025-12-09T16:56:36.863502+00:00",
        "meta_object_name": "FENGYUN 1C DEB",
        "meta_object_id": "1999-025EBS",
        "meta_epoch": "2025-12-08T03:02:04.297632",
        "meta_mean_motion": 14.1452558,
        "meta_eccentricity": 0.00872891,
        "meta_inclination": 99.1431,
        "meta_ra_of_asc_node": 48.0152,
        "meta_arg_of_pericenter": 254.5991,
        "meta_mean_anomaly": 104.5525,
        "meta_ephemeris_type": 0,
        "meta_classification_type": "U",
        "meta_norad_cat_id": 36986,
        "meta_element_set_no": 999,
        "meta_rev_at_epoch": 81679,
        "meta_bstar": 0.0028814321,
        "meta_mean_motion_dot": 5.691e-05,
        "meta_mean_motion_ddot": 0,
        "tle_line1": "1 36986U 99025EBS 25342.12643863  .00005691  00000+0  28814-2 0  9991",
        "tle_line2": "2 36986  99.1431  48.0152 0087289 254.5991 104.5525 14.14525580816798"
      },
      "geometry": {
        "type": "Point",
        "coordinates": [
          -113.42441084389864,
          61.074590508915314
        ]
      }
    },
    {
      "type": "Feature",
      "properties": {
        "norad_id": 36987,
        "name": "FENGYUN 1C DEB",
        "group": "fengyun-1c-debris",
        "lat": 52.082693317582866,
        "lon": -149.97474135891744,
        "alt_km": 843.7451954848575,
        "timestamp": "2025-12-09T16:56:36.863512+00:00",
        "meta_object_name": "FENGYUN 1C DEB",
        "meta_object_id": "1999-025EBT",
        "meta_epoch": "2025-12-09T09:33:25.231680",
        "meta_mean_motion": 13.45867945,
        "meta_eccentricity": 0.0319762,
        "meta_inclination": 100.8194,
        "meta_ra_of_asc_node": 223.9038,
        "meta_arg_of_pericenter": 54.7967,
        "meta_mean_anomaly": 308.2662,
        "meta_ephemeris_type": 0,
        "meta_classification_type": "U",
        "meta_norad_cat_id": 36987,
        "meta_element_set_no": 999,
        "meta_rev_at_epoch": 60832,
        "meta_bstar": 0.0018154,
        "meta_mean_motion_dot": 1.425e-05,
        "meta_mean_motion_ddot": 0,
        "tle_line1": "1 36987U 99025EBT 25343.39820870  .00001425  00000+0  18154-2 0  9994",
        "tle_line2": "2 36987 100.8194 223.9038 0319762  54.7967 308.2662 13.45867945608329"
      },
      "geometry": {
        "type": "Point",
        "coordinates": [
          -149.97474135891744,
          52.082693317582866
        ]
      }
    },
    {
      "type": "Feature",
      "properties": {
        "norad_id": 36990,
        "name": "FENGYUN 1C DEB",
        "group": "fengyun-1c-debris",
        "lat": 49.38738520326117,
        "lon": 120.96043172140276,
        "alt_km": 1068.7906384113076,
        "timestamp": "2025-12-09T16:56:36.863522+00:00",
        "meta_object_name": "FENGYUN 1C DEB",
        "meta_object_id": "1999-025EBW",
        "meta_epoch": "2025-12-05T02:36:38.289600",
        "meta_mean_motion": 13.56914719,
        "meta_eccentricity": 0.0292772,
        "meta_inclination": 96.5839,
        "meta_ra_of_asc_node": 290.134,
        "meta_arg_of_pericenter": 44.0413,
        "meta_mean_anomaly": 318.3658,
        "meta_ephemeris_type": 0,
        "meta_classification_type": "U",
        "meta_norad_cat_id": 36990,
        "meta_element_set_no": 999,
        "meta_rev_at_epoch": 82784,
        "meta_bstar": 0.0013157618,
        "meta_mean_motion_dot": 1.212e-05,
        "meta_mean_motion_ddot": 0,
        "tle_line1": "1 36990U 99025EBW 25339.10877650  .00001212  00000+0  13158-2 0  9993",
        "tle_line2": "2 36990  96.5839 290.1340 0292772  44.0413 318.3658 13.56914719827842"
      },
      "geometry": {
        "type": "Point",
        "coordinates": [
          120.96043172140276,
          49.38738520326117
        ]
      }
    },
    {
      "type": "Feature",
      "properties": {
        "norad_id": 36994,
        "name": "FENGYUN 1C DEB",
        "group": "fengyun-1c-debris",
        "lat": -78.70558025727355,
        "lon": -4.233288108974159,
        "alt_km": 856.6259641084753,
        "timestamp": "2025-12-09T16:56:36.863532+00:00",
        "meta_object_name": "FENGYUN 1C DEB",
        "meta_object_id": "1999-025ECA",
        "meta_epoch": "2025-12-08T03:20:52.745568",
        "meta_mean_motion": 13.9078309,
        "meta_eccentricity": 0.01147715,
        "meta_inclination": 98.6425,
        "meta_ra_of_asc_node": 304.711,
        "meta_arg_of_pericenter": 305.9095,
        "meta_mean_anomaly": 53.1456,
        "meta_ephemeris_type": 0,
        "meta_classification_type": "U",
        "meta_norad_cat_id": 36994,
        "meta_element_set_no": 999,
        "meta_rev_at_epoch": 80843,
        "meta_bstar": 0.0002375941,
        "meta_mean_motion_dot": 2.72e-06,
        "meta_mean_motion_ddot": 0,
        "tle_line1": "1 36994U 99025ECA 25342.13949937  .00000272  00000+0  23759-3 0  9996",
        "tle_line2": "2 36994  98.6425 304.7110 0114771 305.9095  53.1456 13.90783090808432"
      },
      "geometry": {
        "type": "Point",
        "coordinates": [
          -4.233288108974159,
          -78.70558025727355
        ]
      }
    },
    {
      "type": "Feature",
      "properties": {
        "norad_id": 36995,
        "name": "FENGYUN 1C DEB",
        "group": "fengyun-1c-debris",
        "lat": 28.733842535744508,
        "lon": -141.96015858380082,
        "alt_km": 865.4156587878215,
        "timestamp": "2025-12-09T16:56:36.863542+00:00",
        "meta_object_name": "FENGYUN 1C DEB",
        "meta_object_id": "1999-025ECB",
        "meta_epoch": "2025-12-08T10:02:19.805856",
        "meta_mean_motion": 14.04866469,
        "meta_eccentricity": 0.00387684,
        "meta_inclination": 98.3436,
        "meta_ra_of_asc_node": 221.4704,
        "meta_arg_of_pericenter": 323.8393,
        "meta_mean_anomaly": 36.0156,
        "meta_ephemeris_type": 0,
        "meta_classification_type": "U",
        "meta_norad_cat_id": 36995,
        "meta_element_set_no": 999,
        "meta_rev_at_epoch": 63496,
        "meta_bstar": 2.3580985e-05,
        "meta_mean_motion_dot": -1e-08,
        "meta_mean_motion_ddot": 0,
        "tle_line1": "1 36995U 99025ECB 25342.41828479 -.00000001  00000+0  23581-4 0  9990",
        "tle_line2": "2 36995  98.3436 221.4704 0038768 323.8393  36.0156 14.04866469634967"
      },
      "geometry": {
        "type": "Point",
        "coordinates": [
          -141.96015858380082,
          28.733842535744508
        ]
      }
    },
    {
      "type": "Feature",
      "properties": {
        "norad_id": 36996,
        "name": "FENGYUN 1C DEB",
        "group": "fengyun-1c-debris",
        "lat": 66.15206777818038,
        "lon": 117.08829518157484,
        "alt_km": 779.4097427451761,
        "timestamp": "2025-12-09T16:56:36.863552+00:00",
        "meta_object_name": "FENGYUN 1C DEB",
        "meta_object_id": "1999-025ECC",
        "meta_epoch": "2025-11-27T05:46:51.154176",
        "meta_mean_motion": 14.11461211,
        "meta_eccentricity": 0.02552856,
        "meta_inclination": 98.2247,
        "meta_ra_of_asc_node": 124.7451,
        "meta_arg_of_pericenter": 33.8599,
        "meta_mean_anomaly": 87.2847,
        "meta_ephemeris_type": 0,
        "meta_classification_type": "U",
        "meta_norad_cat_id": 36996,
        "meta_element_set_no": 999,
        "meta_rev_at_epoch": 59473,
        "meta_bstar": 0.00085126792,
        "meta_mean_motion_dot": 2.056e-05,
        "meta_mean_motion_ddot": 0,
        "tle_line1": "1 36996U 99025ECC 25331.24086984  .00002056  00000+0  85127-3 0  9991",
        "tle_line2": "2 36996  98.2247 124.7451 0255285  33.8599  87.2847 14.11461211594731"
      },
      "geometry": {
        "type": "Point",
        "coordinates": [
          117.08829518157484,
          66.15206777818038
        ]
      }
    }
  ]
}